STARLINK-3639           
1 51789U 22017X   24060.75240869 -.00000619  00000+0 -20812-4 0  9999
2 51789  53.2174  66.3341 0001528  95.9075 264.2092 15.08840954110728
STARLINK-3631           
1 51790U 22017Y   24060.73401256  .00000314  00000+0  37813-4 0  9997
2 51790  53.2175  66.4192 0001695  89.5506 270.5680 15.08838508112412
STARLINK-3602           
1 51791U 22017Z   24060.74505088 -.00000231  00000+0  35991-5 0  9992
2 51791  53.2163  66.3706 0001460  97.3880 262.7278 15.08839874112369
STARLINK-3626           
1 51792U 22017AA  24060.72664905  .00002818  00000+0  19507-3 0  9990
2 51792  53.2169  66.4566 0001809  80.2252 279.8944 15.08843692112410
STARLINK-3633           
1 51793U 22017AB  24060.41106550  .00093019  00000+0  58333-2 0  9996
2 51793  53.2164  67.8811 0001397  86.8226 273.2926 15.08543655112367
STARLINK-3573           
1 51794U 22017AC  24061.18297665 -.00000370  00000+0 -51439-5 0  9993
2 51794  53.2181  64.4098 0001665  95.3808 264.7374 15.08833941112436
STARLINK-3586           
1 51795U 22017AD  24060.91667824  .00050121  00000+0  31475-2 0  9994
2 51795  53.2154  65.7938 0001274  88.1874 144.5530 15.08810922  5763
STARLINK-3630           
1 51796U 22017AE  24061.16358113  .00000141  00000+0  26083-4 0  9999
2 51796  53.2160  64.4034 0001792  96.2931 263.8266 15.10470286112424
STARLINK-3627           
1 51797U 22017AF  24061.13484241  .00025710  00000+0  71912-3 0  9998
2 51797  53.1586  22.8057 0005020  80.6280 279.5291 15.36516834113051
STARLINK-3634           
1 51798U 22017AG  24061.16825339  .00000155  00000+0  27850-4 0  9998
2 51798  53.2179  64.4743 0001535  94.3831 265.7337 15.08834860112470
STARLINK-3637           
1 51799U 22017AH  24060.71561230  .00000207  00000+0  31107-4 0  9994
2 51799  53.2177  66.5058 0001565  91.4817 268.6354 15.08838972112363
STARLINK-3592           
1 51801U 22017AK  24060.71192992 -.00000113  00000+0  11017-4 0  9998
2 51801  53.2176  66.5192 0001708  89.0315 271.0872 15.08837702112363
STARLINK-3557           
1 51802U 22017AL  24060.99529282  .00000420  00000+0  44508-4 0  9996
2 51802  53.2180  65.2388 0001678  87.1980 272.9204 15.08834951112402
STARLINK-3544           
1 51803U 22017AM  24061.16457487  .00001043  00000+0  83664-4 0  9992
2 51803  53.2162  64.4873 0001361  96.7541 263.3606 15.08829093112424
STARLINK-3601           
1 51804U 22017AN  24061.17745674  .00000527  00000+0  51205-4 0  9994
2 51804  53.2186  44.4311 0001794  91.7372 268.3825 15.08834818112769
STARLINK-3605           
1 51805U 22017AP  24061.18114212  .00000533  00000+0  51564-4 0  9999
2 51805  53.2179  44.4922 0001452  94.6787 265.4371 15.08838081112752
STARLINK-3581           
1 51806U 22017AQ  24060.91667824  .01286495  00000+0  42510-1 0  9994
2 51806  53.2177  54.2490 0001694 104.4966 202.3113 15.27938014112557
STARLINK-3606           
1 51807U 22017AR  24060.40004671  .00002008  00000+0  14423-3 0  9993
2 51807  53.2183  57.9197 0001632  98.6440 261.4737 15.08844274112508
STARLINK-3609           
1 51808U 22017AS  24060.71653151  .00001702  00000+0  12499-3 0  9992
2 51808  53.2152  56.4985 0001570  93.2229 266.8943 15.08838767112408
STARLINK-3607           
1 51809U 22017AT  24060.72388870  .00001842  00000+0  13377-3 0  9998
2 51809  53.2182  56.4252 0001663  96.7340 263.3842 15.08840625112501
STARLINK-3613           
1 51810U 22017AU  24061.09283876  .00001033  00000+0  82977-4 0  9996
2 51810  53.2171  45.0308 0001223  94.2954 265.8177 15.08833121112694
STARLINK-3569           
1 51811U 22017AV  24061.18389446 -.00000472  00000+0 -11551-4 0  9995
2 51811  53.2173  54.4022 0001648  90.5332 269.5849 15.08839746112577
STARLINK-3610           
1 51812U 22017AW  24061.12593189  .00000215  00000+0  31584-4 0  9992
2 51812  53.2186  44.6631 0001515  98.7350 261.3813 15.08841178112700
STARLINK-3552           
1 51813U 22017AX  24060.24641220  .00001256  00000+0  96988-4 0  9990
2 51813  53.2172  48.6373 0001476  98.9514 261.1645 15.08841331112457
STARLINK-3599           
1 51814U 22017AY  24061.18481666 -.00001323  00000+0 -65063-4 0  9998
2 51814  53.2191  44.3995 0001671 101.9811 258.1369 15.08834267112712
STARLINK-3604           
1 51815U 22017AZ  24061.12225256 -.00000633  00000+0 -21654-4 0  9995
2 51815  53.2183  44.6815 0002042 108.6899 251.4315 15.08844512112701
STARLINK-3603           
1 51816U 22017BA  24061.13795489  .00001610  00000+0  11919-3 0  9993
2 51816  53.2194  44.8504 0001596  93.9343 266.1831 15.08848600112757
STARLINK-3542           
1 51852U 22022A   24060.81221075  .00001297  00000+0  99542-4 0  9998
2 51852  53.2170  96.0702 0001386  89.1263 270.9888 15.08838392110216
STARLINK-3539           
1 51853U 22022B   24061.11024141  .00000199  00000+0  30589-4 0  9994
2 51853  53.2167  94.3473 0001552  89.4555 270.6615 15.08836875111468
STARLINK-3541           
1 51854U 22022C   24060.80853381  .00000472  00000+0  47729-4 0  9994
2 51854  53.2173  96.0873 0001636  91.9418 268.1761 15.08838085111478
STARLINK-3545           
1 51855U 22022D   24060.79380278  .00000511  00000+0  50217-4 0  9993
2 51855  53.2170  96.0770 0001663  88.2924 271.8259 15.08834583111420
STARLINK-3568           
1 51856U 22022E   24060.80580973 -.00000613  00000+0 -20392-4 0  9996
2 51856  53.2186  96.1112 0001859  86.1512 273.9693 15.08841105111508
STARLINK-3571           
1 51857U 22022F   24060.79476852  .00000955  00000+0  78104-4 0  9996
2 51857  53.2172  96.1581 0001604  84.5357 275.5819 15.08836073111473
STARLINK-3563           
1 51858U 22022G   24060.40005222  .00000941  00000+0  77250-4 0  9990
2 51858  53.2183  97.9218 0001678  94.8255 265.2929 15.08834665111411
STARLINK-3560           
1 51859U 22022H   24060.35040741  .00000655  00000+0  59260-4 0  9993
2 51859  53.2167  88.1528 0001529  88.0414 272.0753 15.08838170111547
STARLINK-3559           
1 51860U 22022J   24061.08545297 -.00000368  00000+0 -50093-5 0  9991
2 51860  53.2153  84.8418 0001424  93.5708 266.5447 15.08835128111612
STARLINK-3562           
1 51861U 22022K   24060.80577069  .00000875  00000+0  73062-4 0  9994
2 51861  53.2166  86.0970 0001518 100.4896 259.6267 15.08841355111481
STARLINK-3508           
1 51862U 22022L   24060.48560787 -.00001037  00000+0 -47043-4 0  9991
2 51862  53.2165  87.5351 0001769  87.0841 273.0353 15.08839386111575
STARLINK-3555           
1 51863U 22022M   24060.79840937 -.00000053  00000+0  14791-4 0  9994
2 51863  53.2160  86.1315 0001393  94.6158 265.4993 15.08838127111560
STARLINK-3548           
1 51864U 22022N   24061.06704287 -.00000248  00000+0  25052-5 0  9992
2 51864  53.2162  84.8499 0001354  88.1028 272.0119 15.08836061111651
STARLINK-3503           
1 51865U 22022P   24060.79105283  .00003867  00000+0  26097-3 0  9990
2 51865  53.2173  86.1642 0001360  89.1858 270.9290 15.08832455111568
STARLINK-3553           
1 51866U 22022Q   24061.05324425 -.00022016  00000+0 -13661-2 0  9993
2 51866  53.2167  84.8413 0001098  61.3393 298.7709 15.08929252111607
STARLINK-3590           
1 51867U 22022R   24060.78737451  .00000920  00000+0  75918-4 0  9993
2 51867  53.2177  86.1824 0001692  86.3462 273.7723 15.08834233111562
STARLINK-3578           
1 51868U 22022S   24060.79472923 -.00000112  00000+0  11081-4 0  9990
2 51868  53.2170  86.1488 0001613  83.1438 276.9738 15.08841408111566
STARLINK-3588           
1 51869U 22022T   24060.77633104 -.00000397  00000+0 -68607-5 0  9992
2 51869  53.2172  86.2327 0001267  90.8363 269.2775 15.08833899111560
STARLINK-3591           
1 51870U 22022U   24060.78369134  .00001054  00000+0  84277-4 0  9993
2 51870  53.2169  86.1959 0001375  90.8257 269.2893 15.08837672111610
STARLINK-3567           
1 51871U 22022V   24060.77265345 -.00000118  00000+0  10663-4 0  9991
2 51871  53.2166  86.2468 0001361  90.4169 269.6979 15.08833255111675
STARLINK-3554           
1 51872U 22022W   24060.78000741  .00003598  00000+0  24389-3 0  9993
2 51872  53.2150  86.2144 0001435  81.4984 278.6171 15.08860604111567
STARLINK-3582           
1 51873U 22022X   24061.09377351 -.00000820  00000+0 -33437-4 0  9995
2 51873  53.2154  84.8169 0001399  93.8472 266.2680 15.08833910111615
STARLINK-3574           
1 51874U 22022Y   24060.76897280  .00000111  00000+0  25088-4 0  9991
2 51874  53.2168  86.2664 0001373  89.2076 270.9073 15.08833242111557
STARLINK-3585           
1 51875U 22022Z   24061.07807913  .00000619  00000+0  57002-4 0  9995
2 51875  53.2158  84.7838 0001699  93.9719 266.1467 15.08848374111613
STARLINK-3583           
1 51876U 22022AA  24060.50032223  .00001418  00000+0  10716-3 0  9995
2 51876  53.2170  87.4699 0001590  89.0167 271.1007 15.08840889111525
STARLINK-3556           
1 51877U 22022AB  24060.74780954  .00001086  00000+0  86296-4 0  9991
2 51877  53.2171  76.3598 0001434  87.7519 272.3637 15.08840560111691
STARLINK-3575           
1 51878U 22022AC  24060.75793019  .00000267  00000+0  34872-4 0  9992
2 51878  53.2161  86.3152 0001254  83.3332 276.7803 15.08834691111560
STARLINK-3572           
1 51879U 22022AD  24061.00540931  .00000877  00000+0  73165-4 0  9990
2 51879  53.2168  75.2025 0001395  88.7954 271.3197 15.08839060111730
STARLINK-3566           
1 51880U 22022AE  24060.49661469  .00000623  00000+0  57242-4 0  9991
2 51880  53.2168  87.2090 0001550  95.9579 264.1590 15.08836444111520
STARLINK-3504           
1 51881U 22022AF  24060.73309230 -.00001121  00000+0 -52371-4 0  9998
2 51881  53.2167  76.4282 0001319  90.6092 269.5052 15.08836676111741
STARLINK-3570           
1 51882U 22022AG  24060.74509353  .00000806  00000+0  68749-4 0  9991
2 51882  53.2180  76.3841 0001454  96.7161 263.3997 15.08833352111749
STARLINK-3576           
1 51883U 22022AH  24060.74415804 -.00000054  00000+0  14677-4 0  9996
2 51883  53.2179  76.5611 0001459  95.0069 265.1090 15.08831640111684
